{"type": "FeatureCollection", "features": [ {"type": "Feature", "properties": {"norad_id": 35829, "name": "COSMOS 2251 DEB", "group": "cosmos-2251-debris", "lat": 69.4208217633855, "lon": -127.25024710151212, "alt_km": 632.4728986952559, "timestamp": "2025-12-10T20:49:52.949369+00:00", "meta": {"OBJECT_NAME": "COSMOS 2251 DEB", "OBJECT_ID": "1993-036ATB", "EPOCH": "2025-12-08T14:41:25.732032", "MEAN_MOTION": 14.76103447, "ECCENTRICITY": 0.0006283, "INCLINATION": 74.0249, "RA_OF_ASC_NODE": 106.8945, "ARG_OF_PERICENTER": 174.4564, "MEAN_ANOMALY": 185.6681, "EPHEMERIS_TYPE": 0, "CLASSIFICATION_TYPE": "U", "NORAD_CAT_ID": 35829, "ELEMENT_SET_NO": 999, "REV_AT_EPOCH": 87714, "BSTAR": 0.0032694, "MEAN_MOTION_DOT": 0.0002262, "MEAN_MOTION_DDOT": 0}, "tle": {"line1": "1 35829U 93036ATB 25342.61210338  .00022620  00000+0  32694-2 0  9995", "line2": "2 35829  74.0249 106.8945 0006283 174.4564 185.6681 14.76103447877147"}}, "geometry": {"type": "Point", "coordinates": [-127.25024710151212, 69.4208217633855]}}, {"type": "Feature", "properties": {"norad_id": 35830, "name": "COSMOS 2251 DEB", "group": "cosmos-2251-debris", "lat": 36.25316844288891, "lon": -77.8980018109124, "alt_km": 891.4466762874954, "timestamp": "2025-12-10T20:49:52.949379+00:00", "meta": {"OBJECT_NAME": "COSMOS 2251 DEB", "OBJECT_ID": "1993-036ATC", "EPOCH": "2025-12-06T12:06:38.215008", "MEAN_MOTION": 14.23927917, "ECCENTRICITY": 0.01224789, "INCLINATION": 73.8624, "RA_OF_ASC_NODE": 277.7805, "ARG_OF_PERICENTER": 247.2482, "MEAN_ANOMALY": 111.5683, "EPHEMERIS_TYPE": 0, "CLASSIFICATION_TYPE": "U", "NORAD_CAT_ID": 35830, "ELEMENT_SET_NO": 999, "REV_AT_EPOCH": 61175, "BSTAR": 0.0019622096, "MEAN_MOTION_DOT": 4.837e-05, "MEAN_MOTION_DDOT": 0}, "tle": {"line1": "1 35830U 93036ATC 25340.50460897  .00004837  00000+0  19622-2 0  9996", "line2": "2 35830  73.8624 277.7805 0122478 247.2482 111.5683 14.23927917611750"}}, "geometry": {"type": "Point", "coordinates": [-77.8980018109124, 36.25316844288891]}}, {"type": "Feature", "properties": {"norad_id": 35834, "name": "COSMOS 2251 DEB", "group": "cosmos-2251-debris", "lat": -47.762567782418955, "lon": -70.63708711093207, "alt_km": 929.1588325388666, "timestamp": "2025-12-10T20:49:52.949389+00:00", "meta": {"OBJECT_NAME": "COSMOS 2251 DEB", "OBJECT_ID": "1993-036ATG", "EPOCH": "2025-12-10T04:09:38.447424", "MEAN_MOTION": 14.12975254, "ECCENTRICITY": 0.01091936, "INCLINATION": 73.9311, "RA_OF_ASC_NODE": 309.1077, "ARG_OF_PERICENTER": 109.914, "MEAN_ANOMALY": 268.3063, "EPHEMERIS_TYPE": 0, "CLASSIFICATION_TYPE": "U", "NORAD_CAT_ID": 35834, "ELEMENT_SET_NO": 999, "REV_AT_EPOCH": 66227, "BSTAR": 0.00036917198, "MEAN_MOTION_DOT": 7.04e-06, "MEAN_MOTION_DDOT": 0}, "tle": {"line1": "1 35834U 93036ATG 25344.17336166  .00000704  00000+0  36917-3 0  9994", "line2": "2 35834  73.9311 309.1077 0109193 109.9140 268.3063 14.12975254662274"}}, "geometry": {"type": "Point", "coordinates": [-70.63708711093207, -47.762567782418955]}}, {"type": "Feature", "properties": {"norad_id": 35835, "name": "COSMOS 2251 DEB", "group": "cosmos-2251-debris", "lat": 74.04245579002627, "lon": 3.8590823167954755, "alt_km": 774.4299637922113, "timestamp": "2025-12-10T20:49:52.949401+00:00", "meta": {"OBJECT_NAME": "COSMOS 2251 DEB", "OBJECT_ID": "1993-036ATH", "EPOCH": "2025-12-08T02:26:31.163712", "MEAN_MOTION": 13.82845446, "ECCENTRICITY": 0.0289856, "INCLINATION": 74.0637, "RA_OF_ASC_NODE": 276.2339, "ARG_OF_PERICENTER": 58.9026, "MEAN_ANOMALY": 304.0195, "EPHEMERIS_TYPE": 0, "CLASSIFICATION_TYPE": "U", "NORAD_CAT_ID": 35835, "ELEMENT_SET_NO": 999, "REV_AT_EPOCH": 61635, "BSTAR": 0.0020246404, "MEAN_MOTION_DOT": 3.026e-05, "MEAN_MOTION_DDOT": 0}, "tle": {"line1": "1 35835U 93036ATH 25342.10174958  .00003026  00000+0  20246-2 0  9992", "line2": "2 35835  74.0637 276.2339 0289856  58.9026 304.0195 13.82845446616351"}}, "geometry": {"type": "Point", "coordinates": [3.8590823167954755, 74.04245579002627]}}, {"type": "Feature", "properties": {"norad_id": 35836, "name": "COSMOS 2251 DEB", "group": "cosmos-2251-debris", "lat": 67.2672012899179, "lon": -140.3150853267458, "alt_km": 667.7513998665045, "timestamp": "2025-12-10T20:49:52.949415+00:00", "meta": {"OBJECT_NAME": "COSMOS 2251 DEB", "OBJECT_ID": "1993-036ATJ", "EPOCH": "2025-12-08T21:09:26.726112", "MEAN_MOTION": 14.70831317, "ECCENTRICITY": 0.0024584, "INCLINATION": 74.031, "RA_OF_ASC_NODE": 180.4275, "ARG_OF_PERICENTER": 239.4807, "MEAN_ANOMALY": 120.3938, "EPHEMERIS_TYPE": 0, "CLASSIFICATION_TYPE": "U", "NORAD_CAT_ID": 35836, "ELEMENT_SET_NO": 999, "REV_AT_EPOCH": 63463, "BSTAR": 0.0019954, "MEAN_MOTION_DOT": 0.00012243, "MEAN_MOTION_DDOT": 0}, "tle": {"line1": "1 35836U 93036ATJ 25342.88155933  .00012243  00000+0  19954-2 0  9995", "line2": "2 35836  74.0310 180.4275 0024584 239.4807 120.3938 14.70831317634638"}}, "geometry": {"type": "Point", "coordinates": [-140.3150853267458, 67.2672012899179]}}, {"type": "Feature", "properties": {"norad_id": 35837, "name": "COSMOS 2251 DEB", "group": "cosmos-2251-debris", "lat": -1.6252969139294737, "lon": -149.73374456478166, "alt_km": 1233.5123936203609, "timestamp": "2025-12-10T20:49:52.949424+00:00", "meta": {"OBJECT_NAME": "COSMOS 2251 DEB", "OBJECT_ID": "1993-036ATK", "EPOCH": "2025-12-09T22:01:37.127712", "MEAN_MOTION": 13.63437069, "ECCENTRICITY": 0.04220669, "INCLINATION": 73.7216, "RA_OF_ASC_NODE": 212.3216, "ARG_OF_PERICENTER": 133.5531, "MEAN_ANOMALY": 246.304, "EPHEMERIS_TYPE": 0, "CLASSIFICATION_TYPE": "U", "NORAD_CAT_ID": 35837, "ELEMENT_SET_NO": 999, "REV_AT_EPOCH": 57938, "BSTAR": 0.0025074688, "MEAN_MOTION_DOT": 3.597e-05, "MEAN_MOTION_DDOT": 0}, "tle": {"line1": "1 35837U 93036ATK 25343.91779083  .00003597  00000+0  25075-2 0  9992", "line2": "2 35837  73.7216 212.3216 0422066 133.5531 246.3040 13.63437069579385"}}, "geometry": {"type": "Point", "coordinates": [-149.73374456478166, -1.6252969139294737]}}, {"type": "Feature", "properties": {"norad_id": 35839, "name": "COSMOS 2251 DEB", "group": "cosmos-2251-debris", "lat": -14.29589003565027, "lon": 151.72310684344075, "alt_km": 419.5925014778977, "timestamp": "2025-12-10T20:49:52.949434+00:00", "meta": {"OBJECT_NAME": "COSMOS 2251 DEB", "OBJECT_ID": "1993-036ATM", "EPOCH": "2025-12-10T15:20:55.247712", "MEAN_MOTION": 15.50454506, "ECCENTRICITY": 0.00011512, "INCLINATION": 74.2075, "RA_OF_ASC_NODE": 328.0833, "ARG_OF_PERICENTER": 79.6303, "MEAN_ANOMALY": 280.5041, "EPHEMERIS_TYPE": 0, "CLASSIFICATION_TYPE": "U", "NORAD_CAT_ID": 35839, "ELEMENT_SET_NO": 999, "REV_AT_EPOCH": 88535, "BSTAR": 0.0073280445, "MEAN_MOTION_DOT": 0.0044198, "MEAN_MOTION_DDOT": 0}, "tle": {"line1": "1 35839U 93036ATM 25344.63952833  .00441980  00000+0  73280-2 0  9993", "line2": "2 35839  74.2075 328.0833 0001151  79.6303 280.5041 15.50454506885352"}}, "geometry": {"type": "Point", "coordinates": [151.72310684344075, -14.29589003565027]}}, {"type": "Feature", "properties": {"norad_id": 35840, "name": "COSMOS 2251 DEB", "group": "cosmos-2251-debris", "lat": 23.016446296325775, "lon": 168.68240148692084, "alt_km": 701.4478977583149, "timestamp": "2025-12-10T20:49:52.949445+00:00", "meta": {"OBJECT_NAME": "COSMOS 2251 DEB", "OBJECT_ID": "1993-036ATN", "EPOCH": "2025-12-09T04:38:38.499360", "MEAN_MOTION": 14.37769402, "ECCENTRICITY": 0.0116323, "INCLINATION": 73.9303, "RA_OF_ASC_NODE": 164.7511, "ARG_OF_PERICENTER": 68.104, "MEAN_ANOMALY": 293.2433, "EPHEMERIS_TYPE": 0, "CLASSIFICATION_TYPE": "U", "NORAD_CAT_ID": 35840, "ELEMENT_SET_NO": 999, "REV_AT_EPOCH": 85240, "BSTAR": 0.002118, "MEAN_MOTION_DOT": 6.875e-05, "MEAN_MOTION_DDOT": 0}, "tle": {"line1": "1 35840U 93036ATN 25343.19350115  .00006875  00000+0  21180-2 0  9992", "line2": "2 35840  73.9303 164.7511 0116323  68.1040 293.2433 14.37769402852405"}}, "geometry": {"type": "Point", "coordinates": [168.68240148692084, 23.016446296325775]}}, {"type": "Feature", "properties": {"norad_id": 35883, "name": "COSMOS 2251 DEB", "group": "cosmos-2251-debris", "lat": -56.56748497878293, "lon": 47.833171280862025, "alt_km": 736.7271337483908, "timestamp": "2025-12-10T20:49:52.949455+00:00", "meta": {"OBJECT_NAME": "COSMOS 2251 DEB", "OBJECT_ID": "1993-036ATW", "EPOCH": "2025-12-08T12:53:27.979296", "MEAN_MOTION": 14.5058807, "ECCENTRICITY": 0.00839123, "INCLINATION": 74.0248, "RA_OF_ASC_NODE": 77.932, "ARG_OF_PERICENTER": 208.211, "MEAN_ANOMALY": 163.6192, "EPHEMERIS_TYPE": 0, "CLASSIFICATION_TYPE": "U", "NORAD_CAT_ID": 35883, "ELEMENT_SET_NO": 999, "REV_AT_EPOCH": 62325, "BSTAR": 0.00065719246, "MEAN_MOTION_DOT": 2.667e-05, "MEAN_MOTION_DDOT": 0}, "tle": {"line1": "1 35883U 93036ATW 25342.53712939  .00002667  00000+0  65719-3 0  9994", "line2": "2 35883  74.0248  77.9320 0083912 208.2110 163.6192 14.50588070623253"}}, "geometry": {"type": "Point", "coordinates": [47.833171280862025, -56.56748497878293]}}, {"type": "Feature", "properties": {"norad_id": 35884, "name": "COSMOS 2251 DEB", "group": "cosmos-2251-debris", "lat": -8.389918292608042, "lon": 161.8244243047824, "alt_km": 772.2720736229485, "timestamp": "2025-12-10T20:49:52.949465+00:00", "meta": {"OBJECT_NAME": "COSMOS 2251 DEB", "OBJECT_ID": "1993-036ATX", "EPOCH": "2025-12-09T17:00:47.209536", "MEAN_MOTION": 14.25629404, "ECCENTRICITY": 0.01087033, "INCLINATION": 73.9912, "RA_OF_ASC_NODE": 341.4952, "ARG_OF_PERICENTER": 129.2859, "MEAN_ANOMALY": 231.7992, "EPHEMERIS_TYPE": 0, "CLASSIFICATION_TYPE": "U", "NORAD_CAT_ID": 35884, "ELEMENT_SET_NO": 999, "REV_AT_EPOCH": 22314, "BSTAR": 0.001725321, "MEAN_MOTION_DOT": 4.326e-05, "MEAN_MOTION_DDOT": 0}, "tle": {"line1": "1 35884U 93036ATX 25343.70887974  .00004326  00000+0  17253-2 0  9990", "line2": "2 35884  73.9912 341.4952 0108703 129.2859 231.7992 14.25629404223146"}}, "geometry": {"type": "Point", "coordinates": [161.8244243047824, -8.389918292608042]}}]}